# Dwarf planets of the Solar System along with all known satellites.
# Each object has all alternative designations.
# Pluto is defined first, so that it will be selected by the "9" key.


# Masses of Pluto and Charon from Brozović and Jacobson (2024), AJ 167 (6), id.256
# "Post-new-horizons Orbits and Masses for the Satellites of Pluto"
# https://ui.adsabs.harvard.edu/abs/2024AJ....167..256B/abstract
# Masses of Nix and Hydra from Porter and Canup (2023), Planet. Sci. J. 4, 120
# "Orbits and Masses of the Small Satellites of Pluto"
# https://ui.adsabs.harvard.edu/abs/2023PSJ.....4..120P/abstract
# Color calculated with phase integral from Verbiscer et al. (2022), Planet. Sci. J. 3, 95
# "The Diverse Shapes of Dwarf Planet and Large KBO Phase Curves Observed from New Horizons"
# https://ui.adsabs.harvard.edu/abs/2022PSJ.....3...95V/abstract
ReferencePoint "Pluto-Charon" "Sol"
{
	# CustomOrbit "pluto"
	EllipticalOrbit
	{
		Epoch	2457217.5  # 2015 Jul 14
		Period	248.054184846803
		SemiMajorAxis	39.4783420066459
		Eccentricity	0.2501732811304472
		Inclination	17.16201351793483
		AscendingNode	110.2878066070713
		ArgOfPericenter	113.3688155797719
		MeanAnomaly	37.59714922781219
	}
	# Make the orbit and label visible
	Visible true
	Clickable true
}

"Pluto:134340 Pluto" "Sol"
{
	Class	"dwarfplanet"
	Texture	"pluto.*"
	NormalMap	"pluto-normal.*"
	Color	[ 1.0 0.95948 0.86047 ]
	Radius	1188.3
	Mass	0.0021809422
	Atmosphere
	{
		Height	130
		Mie	0.00005
		MieAsymmetry	-0.55
		Rayleigh	[ 0.00002 0.00003 0.00006 ]
		MieScaleHeight	60
	}
	OrbitFrame
	{
		EclipticJ2000	{ Center "Sol/Pluto-Charon" }
	}
	EllipticalOrbit
	{
		Epoch	2457217.5  # 2015 Jul 14
		Period	6.3872304
		SemiMajorAxis	2035
		Eccentricity	0.0022
		Inclination	112.896311
		AscendingNode	227.401773
		ArgOfPericenter	357.891718
		MeanAnomaly	179.806932
	}
	BodyFrame
	{
		EclipticJ2000	{ Center "Sol/Pluto-Charon" }
	}
	UniformRotation
	{
		Period	153.2935296
		Inclination	115.60
		AscendingNode	228.34
		MeridianAngle	320.75
	}
	LunarLambert	0.5
	GeomAlbedo	0.575
	InfoURL	"https://en.wikipedia.org/wiki/Pluto"
}

"Charon:Pluto I:134340 Pluto I:S 1978 P 1:S 1978 (134340) 1" "Sol/Pluto"
{
	Class	"moon"
	Texture	"charon.*"
	NormalMap	"charon-normal.*"
	Color	[ 0.994 1.0 0.972 ]
	Radius	606
	Mass	0.00026618885
	OrbitFrame
	{
		EclipticJ2000	{ Center "Sol/Pluto-Charon" }
	}
	EllipticalOrbit
	{
		Epoch	2457217.5  # 2015 Jul 14
		Period	6.3872304
		SemiMajorAxis	17536
		Eccentricity	0.0022
		Inclination	112.896304
		AscendingNode	227.401751
		ArgOfPericenter	178.227869
		MeanAnomaly	179.475209
	}
	BodyFrame
	{
		EclipticJ2000	{ Center "Sol/Pluto-Charon" }
	}
	UniformRotation
	{
		Period	153.2935296
		Inclination	115.9
		AscendingNode	227.3
		MeridianAngle	140.4
	}
	LunarLambert	0.5
	GeomAlbedo	0.34
	InfoURL	"https://en.wikipedia.org/wiki/Charon_(moon)"
}

"Styx:Pluto V:134340 Pluto V:S 2012 P 1:S 2012 (134340) 1:P5" "Sol/Pluto"
{
	Class	"minormoon"
	Mesh	"roughsphere.cms"
	Texture	"icymoon.*"
	SemiAxes	[ 8 4.5 4 ]
	OrbitFrame
	{
		EclipticJ2000	{ Center "Sol/Pluto-Charon" }
	}
	EllipticalOrbit
	{
		Epoch	2457217.5  # 2015 Jul 14
		Period	20.16155
		SemiMajorAxis	42656
		Eccentricity	0.005787
		Inclination	112.851617
		AscendingNode	227.409675
		ArgOfPericenter	66.378091
		MeanAnomaly	268.585219
	}
	BodyFrame
	{
		EclipticJ2000	{ Center "Sol/Pluto-Charon" }
	}
	PrecessingRotation
	{
		Period	77.736
		Inclination	82
		PrecessionPeriod	0.0175
	}
	LunarLambert	0.5
	GeomAlbedo	0.65
	InfoURL	"https://en.wikipedia.org/wiki/Styx_(moon)"
}

"Nix:Pluto II:134340 Pluto II:S 2005 P 2:S 2005 (134340) 2" "Sol/Pluto"
{
	Class	"minormoon"
	Mesh	"roughsphere.cms"
	Texture	"icymoon.*"
	SemiAxes	[ 24.9 16.6 15.55 ]
	Mass	0.00000000452110
	OrbitFrame
	{
		EclipticJ2000	{ Center "Sol/Pluto-Charon" }
	}
	EllipticalOrbit
	{
		Epoch	2457217.5  # 2015 Jul 14
		Period	24.85463
		SemiMajorAxis	48694
		Eccentricity	0.002036
		Inclination	112.907056
		AscendingNode	227.405982
		ArgOfPericenter	170.713572
		MeanAnomaly	19.747982
	}
	BodyFrame
	{
		EclipticJ2000	{ Center "Sol/Pluto-Charon" }
	}
	PrecessingRotation
	{
		Period	43.896
		Inclination	132
		PrecessionPeriod	0.0175
	}
	LunarLambert	0.5
	GeomAlbedo	0.56
	InfoURL	"https://en.wikipedia.org/wiki/Nix_(moon)"
}

"Kerberos:Pluto IV:134340 Pluto IV:S 2011 P 1:S 2011 (134340) 1:P4" "Sol/Pluto"
{
	Class	"minormoon"
	Mesh	"roughsphere.cms"
	Texture	"icymoon.*"
	SemiAxes	[ 9.5 5 4.5 ]
	OrbitFrame
	{
		EclipticJ2000	{ Center "Sol/Pluto-Charon" }
	}
	EllipticalOrbit
	{
		Epoch	2457217.5  # 2015 Jul 14
		Period	32.16756
		SemiMajorAxis	57783
		Eccentricity	0.00328
		Inclination	113.005511
		AscendingNode	227.846526
		ArgOfPericenter	13.004359
		MeanAnomaly	34.026213
	}
	BodyFrame
	{
		EclipticJ2000	{ Center "Sol/Pluto-Charon" }
	}
	PrecessingRotation
	{
		Period	127.92
		Inclination	96
		PrecessionPeriod	0.0175
	}
	LunarLambert	0.5
	GeomAlbedo	0.56
	InfoURL	"https://en.wikipedia.org/wiki/Kerberos_(moon)"
}

"Hydra:Pluto III:134340 Pluto III:S 2005 P 1:S 2005 (134340) 1" "Sol/Pluto"
{
	Class	"minormoon"
	Mesh	"hydra.cmod"
	Orientation	[ 90 1 0 0 ]
	Texture	"icymoon.*"
	Radius	25.45
	Mass	0.00000000502344
	OrbitFrame
	{
		EclipticJ2000	{ Center "Sol/Pluto-Charon" }
	}
	EllipticalOrbit
	{
		Epoch	2457217.5  # 2015 Jul 14
		Period	38.20177
		SemiMajorAxis	64738
		Eccentricity	0.005862
		Inclination	112.873048
		AscendingNode	227.710864
		ArgOfPericenter	16.240228
		MeanAnomaly	49.034160
	}
	BodyFrame
	{
		EclipticJ2000	{ Center "Sol/Pluto-Charon" }
	}
	PrecessingRotation
	{
		Period	10.308
		Inclination	110
		PrecessionPeriod	0.0175
	}
	LunarLambert	0.5
	GeomAlbedo	0.83
	InfoURL	"https://en.wikipedia.org/wiki/Hydra_(moon)"
}

# Mass and density from Park et al. (2019), Icarus 319, 812-827
# "High-resolution shape model of Ceres from stereophotoclinometry using Dawn Imaging Data"
# https://ui.adsabs.harvard.edu/abs/2019Icar..319..812P
"Ceres:1 Ceres:1943 XB:A899 OF" "Sol"
{
	Class	"dwarfplanet"
	Texture	"ceres.*"
	NormalMap	"ceres-normal.*"
	Color	[ 1.0 0.993 0.962 ]
	SemiAxes	[ 482.2 482.1 445.9 ]
	Mass	0.0001571319491
	Density	2161.6
	EllipticalOrbit
	{
		Epoch	2458423.5  # 2018 Nov 01
		Period	4.60401749819034
		SemiMajorAxis	2.767488610268551
		Eccentricity	0.07564579866970941
		Inclination	10.5936527669872
		AscendingNode	80.30765982353495
		ArgOfPericenter	73.2425761850776
		MeanAnomaly	39.86375930207814
	}
	BodyFrame
	{
		EquatorJ2000	{ Center "Sol/Ceres" }
	}
	UniformRotation
	{
	        # C. Raymond, JPL and T. Roatsch, DLR (28-Jun-2018)
		# https://sbnarchive.psi.edu/pds3/dawn/fc/DWNCSPC_4_01/DOCUMENT/CERES_COORD_SYS_180628.HTM
		Epoch	2451545.0         # J2000
		Period	9.074169392       # Omega = 952.1532635 +/- 0.000002 deg/day
		Inclination	23.23967  # Dec   = 66.76033 deg
		AscendingNode	21.42763  # RA    = 291.42763 deg
		MeridianAngle	170.309
	}
	LunarLambert	0.5
	GeomAlbedo	0.090
	InfoURL	"https://en.wikipedia.org/wiki/Ceres_(dwarf_planet)"
}

# Brown & Butler (2018), AJ 156 (4), 164
# "Medium-sized Satellites of Large Kuiper Belt Objects"
# https://iopscience.iop.org/article/10.3847/1538-3881/aad9f2
# Secondary size from Sickafoose et al. (2019), Icarus 319, 657
# "A stellar occultation by Vanth, a satellite of (90482) Orcus"
# https://arxiv.org/abs/1810.08977
# Masses from Brown and Butler (2023), Planet. Sci. J. 4, 193
# "Masses and Densities of Dwarf Planet Satellites Measured with ALMA"
# https://ui.adsabs.harvard.edu/abs/2023PSJ.....4..193B/abstract
ReferencePoint "Orcus-Vanth" "Sol"
{
	EllipticalOrbit
	{
		Epoch	2458600.5  # 2019 Apr 27
		Period	246.057751828792
		SemiMajorAxis	39.266232423648
		Eccentricity	0.224154696
		Inclination	20.593075065434
		AscendingNode	268.806388631985
		ArgOfPericenter	72.159737740794
		MeanAnomaly	180.346243925382
	}
	# Make the orbit and label visible
	Visible true
	Clickable true
}

"Orcus:90482 Orcus:2004 DW" "Sol"
{
	Class	"dwarfplanet"
	Texture	"asteroid.*"
	Color	[ 0.696 0.704 0.708 ]
	BlendTexture	true
	Radius	455
	Mass	0.00009125921
	OrbitFrame
	{
		EquatorJ2000	{ Center "Sol/Orcus-Vanth" }
	}
	EllipticalOrbit
	{
		Epoch	2454000  # 2006 Sept 21 12:00
		Period	9.539154
		SemiMajorAxis	1241.4  # semi-major axis: 8999.8 km, mass ratio: 0.16 +/- 0.02
		Eccentricity	0.00091
		Inclination	105.03
		MeanLongitude	8.52
		AscendingNode	53.49
		LongOfPericenter	148
	}
	BodyFrame
	{
		EquatorJ2000	{ Center "Sol/Orcus-Vanth" }
	}
	UniformRotation  # to match mutual orbit
	{
		Epoch	2454000  # 2006 Sept 21 12:00
		Inclination	105.03
		AscendingNode	53.49
		MeridianAngle	135.03
	}
	LunarLambert	0.5
	GeomAlbedo	0.231
	InfoURL	"https://en.wikipedia.org/wiki/90482_Orcus"
}

# Orbit from Grundy et al. (2019), Icarus 334, 62-78
# "Mutual orbit orientations of transneptunian binaries"
# http://www2.lowell.edu/users/grundy/abstracts/2019.TNB_orbits.html
